{"type": "Feature", "properties": {"shapeName": "Dohuk", "shapeISO": "IQ-DA", "shapeID": "90741666B81100048725045", "shapeGroup": "IRQ", "shapeType": "ADM1"}, "geometry": {"type": "Polygon", "coordinates": [[[43.82860239300004, 36.98147721400005], [43.85325382000008, 37.00341982400005], [43.86767923300005, 37.01749867700005], [43.89332441000005, 37.02773620500005], [43.91576394100008, 37.039251774000036], [43.93980629500004, 37.05204480400005], [43.954231707000076, 37.06355668600003], [43.97506841400008, 37.07634561900005], [43.99911076800004, 37.092968006000035], [44.01994747500004, 37.10958674900007], [44.03116724000006, 37.12236791500004], [44.03597571100005, 37.13386912100003], [44.04743799000005, 37.146432883000045], [44.05738943400007, 37.15063219100006], [44.07687977000006, 37.15226741300006], [44.08611203300006, 37.15226741300006], [44.09226687600005, 37.15226741300006], [44.091241069000034, 37.24296680800006], [44.08713784100007, 37.24786637300008], [44.07585396300004, 37.25766454700005], [44.06662169900005, 37.270726798000055], [44.05841524200008, 37.28133820700003], [44.04610555700003, 37.28623527700006], [44.01327972900003, 37.282970600000056], [43.99071197200004, 37.26991047300004], [43.97840228700005, 37.25603160700007], [43.94967968800006, 37.25194910000005], [43.94557646000004, 37.23480015800004], [43.94044742400007, 37.221731678000026], [43.92813773900008, 37.205392894000056], [43.91480224700007, 37.18823336300005], [43.90351836800005, 37.18006078700006], [43.88505384100006, 37.179243480000025], [43.85325382000008, 37.18087808400003], [43.84094413500003, 37.175156816000026], [43.82145380000003, 37.16453045600008], [43.80811830700003, 37.18006078700006], [43.784524744000066, 37.192319319000035], [43.78042151500006, 37.193953640000075], [43.760931181000046, 37.19558792500004], [43.693227911000065, 37.192319319000035], [43.660402084000054, 37.190684963000024], [43.650144013000045, 37.18251265200007], [43.629627871000025, 37.18251265200007], [43.60808592200004, 37.18823336300005], [43.58859558700004, 37.19885638900007], [43.584492358000034, 37.20620991800007], [43.55884718100003, 37.21846420400004], [43.53833103900007, 37.22254852400005], [43.52396973900005, 37.210294901000054], [43.51268586100008, 37.209477922000076], [43.48088584000004, 37.21274578500004], [43.46139550500004, 37.220914823000044], [43.45216324100005, 37.232349990000046], [43.42651806400005, 37.238066924000066], [43.41318257200004, 37.23970025400007], [43.39779546500006, 37.25031603600007], [43.39471804300007, 37.259297453000045], [43.38958900800003, 37.26582872000006], [43.37009867300003, 37.26909414000005], [43.36599544400008, 37.27644082000006], [43.34753091700003, 37.28215440800005], [43.33009219600007, 37.282970600000056], [43.31573089600005, 37.28052199800004], [43.30239540400004, 37.27235942000004], [43.291111526000066, 37.26991047300004], [43.281879262000075, 37.26991047300004], [43.268543770000065, 37.27644082000006], [43.251105048000056, 37.29031592500007], [43.226485678000074, 37.30255654000007], [43.193659851000064, 37.313979317000076], [43.165963059000035, 37.315611], [43.14852433800007, 37.32621608000005], [43.12390496800003, 37.33029455900004], [43.080821068000034, 37.32866319400006], [43.05825331300008, 37.31805845900004], [43.03978878400005, 37.313163462000034], [43.02029845000004, 37.310715843000025], [42.99055004400003, 37.28786756200003], [42.97721455100003, 37.28052199800004], [42.95875002300005, 37.27970578000003], [42.92182096700003, 37.28133820700003], [42.89002094700004, 37.287051424000026], [42.88078868300005, 37.291948122000065], [42.836678977000076, 37.30418847100003], [42.82539510000004, 37.31479516300004], [42.817188643000065, 37.32376888700003], [42.79872411400004, 37.33355718200005], [42.78231120100003, 37.32947888100006], [42.758717637000075, 37.313163462000034], [42.744356338000046, 37.30010857600007], [42.735124074000055, 37.29031592500007], [42.723840196000026, 37.27970578000003], [42.711530510000046, 37.270726798000055], [42.689988561000064, 37.25439863100007], [42.682807911000054, 37.24296680800006], [42.662291769000035, 37.23153325000004], [42.643827241000054, 37.21764731400003], [42.639724013000034, 37.20457586200007], [42.630491748000054, 37.193953640000075], [42.61920787100007, 37.18332992300003], [42.60587237900006, 37.168617694000034], [42.59869172900005, 37.15472018100007], [42.58638204300007, 37.137549137000065], [42.57202074300005, 37.113830336000035], [42.55971105800006, 37.10810399400003], [42.54329814400006, 37.11792031400006], [42.51560135300008, 37.11137624200006], [42.50021424600004, 37.104831604000026], [42.48482713900006, 37.10237721900006], [42.45200131200005, 37.10237721900006], [42.42738194100008, 37.10074091800004], [42.40583999200004, 37.08846753500006], [42.38224642900008, 37.090104101000065], [42.36993674400003, 37.08764923900003], [42.37439023700006, 37.08105124100007], [42.37157803500003, 37.08093887700005], [42.37214463300006, 37.070431006000035], [42.37814320100006, 37.01560458300003], [42.38737546500005, 36.994305576000045], [42.39455611400007, 36.98283440900008], [42.39968515000004, 36.97300060200007], [42.40583999200004, 36.96480479300004], [42.42225290600004, 36.95086989200007], [42.43045936300007, 36.941031957000064], [42.43969162700006, 36.929552759000046], [42.44994969800007, 36.922992442000066], [42.45918196200006, 36.91889195700003], [42.47354326100003, 36.92135227400007], [42.49508521100006, 36.941851833000044], [42.51149812400007, 36.94349156000004], [42.51867877400008, 36.922992442000066], [42.51354973900004, 36.90576892200005], [42.51149812400007, 36.88197766900004], [42.51149812400007, 36.87377206900004], [42.50534328200007, 36.85735822500004], [42.49405940400004, 36.843403685000055], [42.49303359700008, 36.83683596100008], [42.49303359700008, 36.82451995900004], [42.50021424600004, 36.81959300300008], [42.55047879500006, 36.81630819000003], [42.55868525100004, 36.81384448700004], [42.57202074400004, 36.799882008000054], [42.57714977900008, 36.78591698300005], [42.59253688600006, 36.77030600100005], [42.59766592100004, 36.762088418000076], [42.62433690600005, 36.75797929600003], [42.63767239900005, 36.763732005000065], [42.648956277000025, 36.78263072500005], [42.666394998000044, 36.78673852500003], [42.691014368000026, 36.78098754300004], [42.701272439000036, 36.77441446200004], [42.702298246000055, 36.76291021600008], [42.714607932000035, 36.75551371700004], [42.731020845000046, 36.74647258400006], [42.751536987000065, 36.73249782800008], [42.74948537300003, 36.72098729500004], [42.735124074000055, 36.70454068400005], [42.734098267000036, 36.69713856000004], [42.742304724000064, 36.69055829700005], [42.760769251000056, 36.68726795400005], [42.767949901000065, 36.69055829700005], [42.78025958600006, 36.70536309800008], [42.80487895700003, 36.71523138200007], [42.817188642000076, 36.69960601400004], [42.81924025700005, 36.68726795400005], [42.820266064000066, 36.67821878400008], [42.83257574900006, 36.67492791300003], [42.84591124100007, 36.680686845000025], [42.85719511900004, 36.693025962000036], [42.869504805000076, 36.696316058000036], [42.89309836800004, 36.69384849900007], [42.90335643900005, 36.69138086000004], [42.95156937300004, 36.685622729000045], [42.96695648000008, 36.68644534600003], [42.97721455100003, 36.69878353800004], [42.99465327200005, 36.70207338900008], [43.01824683500007, 36.702895829000056], [43.03260813500003, 36.70947503700006], [43.05927912000004, 36.716875972000025], [43.08184687600004, 36.721809533000055], [43.086975911000025, 36.73249782800008], [43.09518236800005, 36.74400663600005], [43.11467270300005, 36.769484282000064], [43.136214653000025, 36.78591698300005], [43.14442110900006, 36.801524785000026], [43.15775660200006, 36.81959300300008], [43.17109209400007, 36.83273084800004], [43.182375972000045, 36.84586643600005], [43.199814693000064, 36.868027625000025], [43.214175993000026, 36.88197766900004], [43.245976013000075, 36.882798180000066], [43.25623408400003, 36.89018238700004], [43.29931798300004, 36.895104795000066], [43.31573089600005, 36.88936195500003], [43.323937353000076, 36.88033662000004], [43.34240188100006, 36.87048958200006], [43.36496963700006, 36.860641276000024], [43.37625351600008, 36.85161254600007], [43.39471804400006, 36.84422461100007], [43.40600192200003, 36.83847794500008], [43.41831160700008, 36.82944659800006], [43.43985355600006, 36.81630819000003], [43.45421485600008, 36.80316752600004], [43.47473099800004, 36.794132012000034], [43.51884070300008, 36.789203100000066], [43.55166653100008, 36.794132012000034], [43.584492358000034, 36.80234616000007], [43.610137536000025, 36.81302323500006], [43.633731099000045, 36.822877676000076], [43.64809239900006, 36.83108874000004], [43.65527304900007, 36.84504552800007], [43.662453698000036, 36.86228274800004], [43.662453698000036, 36.88525966200007], [43.653221434000045, 36.89428441600006], [43.63475690700005, 36.90576892200005], [43.621421414000054, 36.917251701000055], [43.60603430800006, 36.92873275000005], [43.59680204400007, 36.941851833000044], [43.594750429000044, 36.95578838400007], [43.60295688600007, 36.968083223000065], [43.62552464300006, 36.96972238500007], [43.64501497800006, 36.96726362900006], [43.66142789100007, 36.97300060200007], [43.689124683000045, 36.98201497300005], [43.716821475000074, 36.986112062000075], [43.744518267000046, 36.986112062000075], [43.808118308000076, 36.98693145300007], [43.82860239300004, 36.98147721400005]]]}}